NORAD_CAT_ID,OBJECT_NAME,OBJECT_TYPE,EPOCH,MEAN_MOTION,ECCENTRICITY,INCLINATION,RA_OF_ASC_NODE,ARG_OF_PERICENTER,MEAN_ANOMALY,BSTAR,MEAN_MOTION_DOT,MEAN_MOTION_DDOT,TLE_LINE0,TLE_LINE1,TLE_LINE2,SEMIMAJOR_AXIS,PERIOD,APOGEE,PERIGEE,DECAYED
54777.0,STARLINK-5468,PAYLOAD,2024-05-01 22:14:10,15.08854007,0.0001604,53.2206,202.028,82.8003,277.3171,6.5479e-05,7.55e-06,0.0,0 STARLINK-5468,1 54777U 22175V   24122.92651045  .00000755  00000-0  65479-4 0  9992,2 54777  53.2206 202.0280 0001604  82.8003 277.3171 15.08854007 77758,6917.838,95.437,540.812,538.593,0.0
54777.0,STARLINK-5468,PAYLOAD,2024-05-02 12:32:39,15.08835042,0.0001422,53.2169,199.3516,83.9379,276.1776,9.7355e-06,-1.33e-06,0.0,0 STARLINK-5468,1 54777U 22175V   24123.52268441 -.00000133  00000-0  97355-5 0  9993,2 54777  53.2169 199.3516 0001422  83.9379 276.1776 15.08835042 75688,6917.896,95.438,540.744,538.777,0.0
54777.0,STARLINK-5468,PAYLOAD,2024-05-02 14:08:02,15.0883709,0.0001505,53.2175,199.0546,85.3933,274.7231,2.5936e-05,1.25e-06,0.0,0 STARLINK-5468,1 54777U 22175V   24123.58892306  .00000125  00000-0  25936-4 0  9997,2 54777  53.2175 199.0546 0001505  85.3933 274.7231 15.08837090 77855,6917.889,95.438,540.795,538.713,0.0
54777.0,STARLINK-5468,PAYLOAD,2024-05-03 04:26:30,15.08841929,0.0001512,53.2176,196.3791,90.1747,269.9418,6.4983e-05,7.46e-06,0.0,0 STARLINK-5468,1 54777U 22175V   24124.18507716  .00000746  00000-0  64983-4 0  9996,2 54777  53.2176 196.3791 0001512  90.1747 269.9418 15.08841929 75782,6917.874,95.437,540.785,538.694,0.0
54777.0,STARLINK-5468,PAYLOAD,2024-05-03 12:23:26,15.08851821,0.0001071,53.2162,194.8916,86.9831,273.1284,-5.3172e-05,-1.134e-05,0.0,0 STARLINK-5468,1 54777U 22175V   24124.51627410 -.00001134  00000-0 -53172-4 0  9999,2 54777  53.2162 194.8916 0001071  86.9831 273.1284 15.08851821 77991,6917.844,95.437,540.45,538.968,0.0
54777.0,STARLINK-5468,PAYLOAD,2024-05-03 21:55:44,15.08852668,0.0001527,53.216,193.1034,83.1706,276.946,7.9331e-05,9.75e-06,0.0,0 STARLINK-5468,1 54777U 22175V   24124.91370685  .00000975  00000-0  79331-4 0  9997,2 54777  53.2160 193.1034 0001527  83.1706 276.9460 15.08852668 78053,6917.842,95.437,540.763,538.65,0.0
54777.0,STARLINK-5468,PAYLOAD,2024-05-04 04:17:18,15.0882784,0.0001777,53.2167,191.9187,81.4023,278.7171,5.4649e-05,5.81e-06,0.0,0 STARLINK-5468,1 54777U 22175V   24125.17868490  .00000581  00000-0  54649-4 0  9990,2 54777  53.2167 191.9187 0001777  81.4023 278.7171 15.08827840 75932,6917.918,95.438,541.012,538.553,0.0
54777.0,STARLINK-5468,PAYLOAD,2024-05-04 10:38:51,15.08823228,0.0001389,53.2161,190.7291,82.6688,277.4462,1.8277e-05,3e-08,0.0,0 STARLINK-5468,1 54777U 22175V   24125.44365026  .00000003  00000-0  18277-4 0  9993,2 54777  53.2161 190.7291 0001389  82.6688 277.4462 15.08823228 75977,6917.932,95.439,540.758,538.836,0.0
54777.0,STARLINK-5468,PAYLOAD,2024-05-05 10:29:37,15.08846959,0.0001491,53.2172,186.2661,88.7325,271.3838,5.9756e-05,6.63e-06,0.0,0 STARLINK-5468,1 54777U 22175V   24126.43723681  .00000663  00000-0  59756-4 0  9997,2 54777  53.2172 186.2661 0001491  88.7325 271.3838 15.08846959 76123,6917.859,95.437,540.756,538.693,0.0
54777.0,STARLINK-5468,PAYLOAD,2024-05-05 13:40:23,15.08850144,0.000149,53.2172,185.671,90.3037,269.8126,8.985e-05,1.143e-05,0.0,0 STARLINK-5468,1 54777U 22175V   24126.56971407  .00001143  00000-0  89850-4 0  9994,2 54777  53.2172 185.6710 0001490  90.3037 269.8126 15.08850144 78304,6917.849,95.437,540.745,538.684,0.0
54777.0,STARLINK-5468,PAYLOAD,2024-05-06 03:58:51,15.08838396,0.0001547,53.217,182.9944,88.3488,271.7681,0.00022141,3.237e-05,0.0,0 STARLINK-5468,1 54777U 22175V   24127.16587846  .00003237  00000-0  22141-3 0  9996,2 54777  53.2170 182.9944 0001547  88.3488 271.7681 15.08838396 76234,6917.885,95.438,540.82,538.68,0.0
54777.0,STARLINK-5468,PAYLOAD,2024-05-06 10:20:24,15.08837259,0.0001523,53.217,181.8054,86.5565,273.5601,0.00021056,3.064e-05,0.0,0 STARLINK-5468,1 54777U 22175V   24127.43084167  .00003064  00000-0  21056-3 0  9996,2 54777  53.2170 181.8054 0001523  86.5565 273.5601 15.08837259 78437,6917.889,95.438,540.807,538.7,0.0
54777.0,STARLINK-5468,PAYLOAD,2024-05-07 10:11:11,15.08844051,0.0001382,53.2163,177.3437,82.0814,278.0335,4.6217e-05,4.48e-06,0.0,0 STARLINK-5468,1 54777U 22175V   24128.42443977  .00000448  00000-0  46217-4 0  9994,2 54777  53.2163 177.3437 0001382  82.0814 278.0335 15.08844051 76424,6917.868,95.437,540.689,538.777,0.0
54777.0,STARLINK-5468,PAYLOAD,2024-05-08 10:01:58,15.08837248,0.0001351,53.2163,172.8856,85.4623,274.6523,7.7986e-05,9.53e-06,0.0,0 STARLINK-5468,1 54777U 22175V   24129.41804281  .00000953  00000-0  77986-4 0  9991,2 54777  53.2163 172.8856 0001351  85.4623 274.6523 15.08837248 76577,6917.889,95.438,540.688,538.819,0.0
54777.0,STARLINK-5468,PAYLOAD,2024-05-08 19:34:17,15.08842877,0.0001349,53.2164,171.1016,84.7575,275.3571,9.2769e-05,1.189e-05,0.0,0 STARLINK-5468,1 54777U 22175V   24129.81547817  .00001189  00000-0  92769-4 0  9992,2 54777  53.2164 171.1016 0001349  84.7575 275.3571 15.08842877 78794,6917.872,95.437,540.67,538.803,0.0
54777.0,STARLINK-5468,PAYLOAD,2024-05-09 11:28:08,15.08841849,0.0001378,53.2164,168.1287,90.7678,269.3472,0.00010912,1.449e-05,0.0,0 STARLINK-5468,1 54777U 22175V   24130.47788027  .00001449  00000-0  10912-3 0  9994,2 54777  53.2164 168.1287 0001378  90.7678 269.3472 15.08841849 76736,6917.875,95.437,540.693,538.786,0.0
54777.0,STARLINK-5468,PAYLOAD,2024-05-10 11:18:56,15.08841529,0.0001362,53.2164,163.6682,94.4401,265.6747,9.8494e-05,1.28e-05,0.0,0 STARLINK-5468,1 54777U 22175V   24131.47148241  .00001280  00000-0  98494-4 0  9998,2 54777  53.2164 163.6682 0001362  94.4401 265.6747 15.08841529 79049,6917.876,95.437,540.683,538.799,0.0
54777.0,STARLINK-5468,PAYLOAD,2024-05-11 09:34:18,15.08883276,0.0001458,53.2161,159.5061,90.7789,269.337,0.00072066,0.00011213,0.0,0 STARLINK-5468,1 54777U 22175V   24132.39882398  .00011213  00000-0  72066-3 0  9991,2 54777  53.2161 159.5061 0001458  90.7789 269.3370 15.08883276 77029,6917.748,95.435,540.622,538.605,0.0
54777.0,STARLINK-5468,PAYLOAD,2024-05-11 19:06:36,15.08888048,0.000155,53.216,157.7217,86.4324,273.6845,0.00068515,0.00010647,0.0,0 STARLINK-5468,1 54777U 22175V   24132.79625016  .00010647  00000-0  68515-3 0  9991,2 54777  53.2160 157.7217 0001550  86.4324 273.6845 15.08888048 79244,6917.734,95.435,540.671,538.526,0.0
54777.0,STARLINK-5468,PAYLOAD,2024-05-12 01:28:10,15.08829998,0.000226,53.2137,156.5346,93.8847,266.2403,-0.00070028,-0.00011413,0.0,0 STARLINK-5468,1 54777U 22175V   24133.06122946 -.00011413  00000-0 -70028-3 0  9992,2 54777  53.2137 156.5346 0002260  93.8847 266.2403 15.08829998 77121,6917.911,95.438,541.339,538.213,0.0
54777.0,STARLINK-5468,PAYLOAD,2024-05-12 11:00:29,15.08802351,0.000148,53.2144,154.7463,112.2452,247.8697,-0.00096134,-0.00015539,0.0,0 STARLINK-5468,1 54777U 22175V   24133.45867709 -.00015539  00000-0 -96134-3 0  9997,2 54777  53.2144 154.7463 0001480 112.2452 247.8697 15.08802351 77180,6917.995,95.44,540.884,538.837,0.0
54777.0,STARLINK-5468,PAYLOAD,2024-05-12 18:57:27,15.08763084,0.000234,53.2147,153.2575,117.2981,242.8249,0.00038796,5.879e-05,0.0,0 STARLINK-5468,1 54777U 22175V   24133.78990263  .00005879  00000-0  38796-3 0  9999,2 54777  53.2147 153.2575 0002340 117.2981 242.8249 15.08763084 77232,6918.116,95.442,541.599,538.362,0.0
54777.0,STARLINK-5468,PAYLOAD,2024-05-13 04:29:47,15.08798943,0.0001608,53.2154,151.4774,99.0569,261.0605,0.0010346,0.00016198,0.0,0 STARLINK-5468,1 54777U 22175V   24134.18735027  .00016198  00000-0  10346-2 0  9995,2 54777  53.2154 151.4774 0001608  99.0569 261.0605 15.08798943 77293,6918.006,95.44,540.983,538.758,0.0
54777.0,STARLINK-5468,PAYLOAD,2024-05-13 10:51:19,15.08825384,0.0001583,53.2155,150.2869,108.0994,252.0171,0.0015708,0.0002479,0.0,0 STARLINK-5468,1 54777U 22175V   24134.45230978  .00024790  00000-0  15708-2 0  9994,2 54777  53.2155 150.2869 0001583 108.0994 252.0171 15.08825384 77334,6917.925,95.438,540.885,538.695,0.0
54777.0,STARLINK-5468,PAYLOAD,2024-05-14 07:31:19,15.08852774,0.0001492,53.2161,146.4214,111.3319,248.7833,0.00079469,0.00012387,0.0,0 STARLINK-5468,1 54777U 22175V   24135.31342307  .00012387  00000-0  79469-3 0  9994,2 54777  53.2161 146.4214 0001492 111.3319 248.7833 15.08852774 77463,6917.841,95.437,540.738,538.674,0.0
54777.0,STARLINK-5468,PAYLOAD,2024-05-15 04:11:19,15.0885813,0.0001666,53.2168,142.5552,108.1767,251.9406,0.00012308,1.672e-05,0.0,0 STARLINK-5468,1 54777U 22175V   24136.17453211  .00001672  00000-0  12308-3 0  9990,2 54777  53.2168 142.5552 0001666 108.1767 251.9406 15.08858130 77594,6917.825,95.436,540.842,538.537,0.0
54777.0,STARLINK-5468,PAYLOAD,2024-05-15 10:32:51,15.08857543,0.0001453,53.2158,141.3656,111.8051,248.3096,0.00018213,2.613e-05,0.0,0 STARLINK-5468,1 54777U 22175V   24136.43948994  .00002613  00000-0  18213-3 0  9993,2 54777  53.2158 141.3656 0001453 111.8051 248.3096 15.08857543 79792,6917.827,95.436,540.697,538.687,0.0
54777.0,STARLINK-5468,PAYLOAD,2024-05-16 04:02:06,15.08851114,0.0001442,53.2158,138.0945,112.1341,247.9804,9.0634e-07,-2.74e-06,0.0,0 STARLINK-5468,1 54777U 22175V   24137.16812647 -.00000274  00000-0  90634-6 0  9991,2 54777  53.2158 138.0945 0001442 112.1341 247.9804 15.08851114 77743,6917.846,95.437,540.709,538.714,0.0
54777.0,STARLINK-5468,PAYLOAD,2024-05-16 07:12:52,15.08850521,0.0001437,53.2165,137.4998,113.2907,246.8236,3.4021e-05,2.54e-06,0.0,0 STARLINK-5468,1 54777U 22175V   24137.30060929  .00000254  00000-0  34021-4 0  9998,2 54777  53.2165 137.4998 0001437 113.2907 246.8236 15.08850521 79926,6917.848,95.437,540.707,538.719,0.0
54777.0,STARLINK-5468,PAYLOAD,2024-05-16 16:45:11,15.08831975,0.0001659,53.2173,135.7149,113.533,246.5837,0.0004802,7.361e-05,0.0,0 STARLINK-5468,1 54777U 22175V   24137.69805249  .00007361  00000-0  48020-3 0  9991,2 54777  53.2173 135.7149 0001659 113.5330 246.5837 15.08831975 77826,6917.905,95.438,540.918,538.622,0.0
